start=new Date('2021-11-10T00:00:00.000Z').valueOf();
sats=[{"EPOCH":"2021-11-09T16:26:52.167264","CENTER_NAME":"EARTH","TLE_LINE1":"1 48119U 21027AD  21313.68532601  .00000527  00000-0  54288-4 0  9991","LAUNCH_DATE":"2021-04-07","BSTAR":"0.00005428800000","EPHEMERIS_TYPE":"0","ELEMENT_SET_NO":"999","RA_OF_ASC_NODE":"49.0091","CLASSIFICATION_TYPE":"U","OBJECT_ID":"2021-027AD","COUNTRY_CODE":"US","REV_AT_EPOCH":"3439","INCLINATION":"53.0563","MEAN_MOTION_DOT":"0.00000527","SITE":"AFETR","NORAD_CAT_ID":"48119","ECCENTRICITY":"0.00012310","SEMIMAJOR_AXIS":"6925.375","PERIOD":"95.593","OBJECT_TYPE":"PAYLOAD","TLE_LINE2":"2 48119  53.0563  49.0091 0001231  79.3130 280.7998 15.06391227 34398","REF_FRAME":"TEME","FILE":"3210180","MEAN_ANOMALY":"280.7998","MEAN_MOTION":"15.06391227","DECAY_DATE":null,"ARG_OF_PERICENTER":"79.3130","APOAPSIS":"548.093","MEAN_MOTION_DDOT":"0.0000000000000","GP_ID":"189361854","RCS_SIZE":"LARGE","PERIAPSIS":"546.388","MEAN_ELEMENT_THEORY":"SGP4","TIME_SYSTEM":"UTC","OBJECT_NAME":"STARLINK-2459"},{"MEAN_MOTION":"15.06387979","MEAN_ANOMALY":"282.0046","FILE":"3210180","REF_FRAME":"TEME","TLE_LINE2":"2 48120  53.0567  68.6942 0001251  78.1083 282.0046 15.06387979 34143","OBJECT_TYPE":"PAYLOAD","PERIOD":"95.593","MEAN_MOTION_DDOT":"0.0000000000000","APOAPSIS":"548.117","ARG_OF_PERICENTER":"78.1083","DECAY_DATE":null,"GP_ID":"189360602","OBJECT_NAME":"STARLINK-2460","TIME_SYSTEM":"UTC","MEAN_ELEMENT_THEORY":"SGP4","PERIAPSIS":"546.384","RCS_SIZE":"LARGE","EPHEMERIS_TYPE":"0","BSTAR":"0.00010732000000","TLE_LINE1":"1 48120U 21027AE  21313.75722164  .00001317  00000-0  10732-3 0  9999","LAUNCH_DATE":"2021-04-07","CENTER_NAME":"EARTH","EPOCH":"2021-11-09T18:10:23.949696","COUNTRY_CODE":"US","OBJECT_ID":"2021-027AE","CLASSIFICATION_TYPE":"U","RA_OF_ASC_NODE":"68.6942","ELEMENT_SET_NO":"999","SITE":"AFETR","MEAN_MOTION_DOT":"0.00001317","INCLINATION":"53.0567","REV_AT_EPOCH":"3414","SEMIMAJOR_AXIS":"6925.385","NORAD_CAT_ID":"48120","ECCENTRICITY":"0.00012510"},{"GP_ID":"189360852","OBJECT_NAME":"STARLINK-2462","TIME_SYSTEM":"UTC","RCS_SIZE":"LARGE","PERIAPSIS":"546.356","MEAN_ELEMENT_THEORY":"SGP4","MEAN_MOTION":"15.06389020","MEAN_ANOMALY":"281.6284","REF_FRAME":"TEME","FILE":"3210180","TLE_LINE2":"2 48121  53.0573  59.1214 0001287  78.4850 281.6284 15.06389020 34252","PERIOD":"95.593","OBJECT_TYPE":"PAYLOAD","APOAPSIS":"548.139","MEAN_MOTION_DDOT":"0.0000000000000","ARG_OF_PERICENTER":"78.4850","DECAY_DATE":null,"SITE":"AFETR","MEAN_MOTION_DOT":"-0.00000163","INCLINATION":"53.0573","REV_AT_EPOCH":"3425","SEMIMAJOR_AXIS":"6925.382","NORAD_CAT_ID":"48121","ECCENTRICITY":"0.00012870","BSTAR":"0.00000797960000","EPHEMERIS_TYPE":"0","TLE_LINE1":"1 48121U 21027AF  21313.66229037 -.00000163  00000-0  79796-5 0  9997","LAUNCH_DATE":"2021-04-07","EPOCH":"2021-11-09T15:53:41.887968","CENTER_NAME":"EARTH","OBJECT_ID":"2021-027AF","COUNTRY_CODE":"US","RA_OF_ASC_NODE":"59.1214","CLASSIFICATION_TYPE":"U","ELEMENT_SET_NO":"999"},{"NORAD_CAT_ID":"48122","ECCENTRICITY":"0.00013610","SEMIMAJOR_AXIS":"6925.368","INCLINATION":"53.0566","REV_AT_EPOCH":"3433","MEAN_MOTION_DOT":"-0.00000632","SITE":"AFETR","ELEMENT_SET_NO":"999","RA_OF_ASC_NODE":"54.1120","CLASSIFICATION_TYPE":"U","OBJECT_ID":"2021-027AG","COUNTRY_CODE":"US","EPOCH":"2021-11-09T15:55:40.259424","CENTER_NAME":"EARTH","LAUNCH_DATE":"2021-04-07","TLE_LINE1":"1 48122U 21027AG  21313.66366041 -.00000632  00000-0 -23560-4 0  9994","BSTAR":"-0.00002356000000","EPHEMERIS_TYPE":"0","RCS_SIZE":"LARGE","PERIAPSIS":"546.290","MEAN_ELEMENT_THEORY":"SGP4","TIME_SYSTEM":"UTC","OBJECT_NAME":"STARLINK-2463","GP_ID":"189362104","DECAY_DATE":null,"ARG_OF_PERICENTER":"88.8407","APOAPSIS":"548.175","MEAN_MOTION_DDOT":"0.0000000000000","PERIOD":"95.593","OBJECT_TYPE":"PAYLOAD","TLE_LINE2":"2 48122  53.0566  54.1120 0001361  88.8407 271.2738 15.06393713 34334","REF_FRAME":"TEME","FILE":"3210180","MEAN_ANOMALY":"271.2738","MEAN_MOTION":"15.06393713"},{"GP_ID":"189362355","RCS_SIZE":"LARGE","MEAN_ELEMENT_THEORY":"SGP4","PERIAPSIS":"546.236","TIME_SYSTEM":"UTC","OBJECT_NAME":"STARLINK-2464","PERIOD":"95.592","OBJECT_TYPE":"PAYLOAD","TLE_LINE2":"2 48123  53.0562  49.0766 0001397  69.0232 291.0907 15.06403204 34409","REF_FRAME":"TEME","FILE":"3210180","MEAN_ANOMALY":"291.0907","MEAN_MOTION":"15.06403204","DECAY_DATE":null,"ARG_OF_PERICENTER":"69.0232","MEAN_MOTION_DDOT":"0.0000000000000","APOAPSIS":"548.171","REV_AT_EPOCH":"3440","INCLINATION":"53.0562","MEAN_MOTION_DOT":"0.00002035","SITE":"AFETR","NORAD_CAT_ID":"48123","ECCENTRICITY":"0.00013970","SEMIMAJOR_AXIS":"6925.339","EPOCH":"2021-11-09T16:05:38.499936","CENTER_NAME":"EARTH","TLE_LINE1":"1 48123U 21027AH  21313.67058449  .00002035  00000-0  15548-3 0  9999","LAUNCH_DATE":"2021-04-07","EPHEMERIS_TYPE":"0","BSTAR":"0.00015548000000","ELEMENT_SET_NO":"999","RA_OF_ASC_NODE":"49.0766","CLASSIFICATION_TYPE":"U","OBJECT_ID":"2021-027AH","COUNTRY_CODE":"US"},{"RCS_SIZE":"LARGE","PERIAPSIS":"546.245","MEAN_ELEMENT_THEORY":"SGP4","TIME_SYSTEM":"UTC","OBJECT_NAME":"STARLINK-2465","GP_ID":"189361103","DECAY_DATE":null,"ARG_OF_PERICENTER":"83.2071","MEAN_MOTION_DDOT":"0.0000000000000","APOAPSIS":"548.021","PERIOD":"95.590","OBJECT_TYPE":"PAYLOAD","TLE_LINE2":"2 48124  53.0561  58.7969 0001282  83.2071 276.9063 15.06426263 34262","REF_FRAME":"TEME","FILE":"3210180","MEAN_MOTION":"15.06426263","MEAN_ANOMALY":"276.9063","NORAD_CAT_ID":"48124","ECCENTRICITY":"0.00012820","SEMIMAJOR_AXIS":"6925.268","INCLINATION":"53.0561","REV_AT_EPOCH":"3426","MEAN_MOTION_DOT":"0.00007383","SITE":"AFETR","ELEMENT_SET_NO":"999","RA_OF_ASC_NODE":"58.7969","CLASSIFICATION_TYPE":"U","OBJECT_ID":"2021-027AJ","COUNTRY_CODE":"US","EPOCH":"2021-11-09T17:39:51.972480","CENTER_NAME":"EARTH","LAUNCH_DATE":"2021-04-07","TLE_LINE1":"1 48124U 21027AJ  21313.73601820  .00007383  00000-0  51368-3 0  9995","EPHEMERIS_TYPE":"0","BSTAR":"0.00051368000000"},{"LAUNCH_DATE":"2021-04-07","TLE_LINE1":"1 48125U 21027AK  21313.59407752  .00003998  00000-0  28700-3 0  9990","CENTER_NAME":"EARTH","EPOCH":"2021-11-09T14:15:28.297728","BSTAR":"0.00028700000000","EPHEMERIS_TYPE":"0","ELEMENT_SET_NO":"999","COUNTRY_CODE":"US","OBJECT_ID":"2021-027AK","CLASSIFICATION_TYPE":"U","RA_OF_ASC_NODE":"69.4268","MEAN_MOTION_DOT":"0.00003998","REV_AT_EPOCH":"3411","INCLINATION":"53.0556","SITE":"AFETR","SEMIMAJOR_AXIS":"6925.306","NORAD_CAT_ID":"48125","ECCENTRICITY":"0.00013600","TLE_LINE2":"2 48125  53.0556  69.4268 0001360  86.1474 273.9670 15.06414007 34112","OBJECT_TYPE":"PAYLOAD","PERIOD":"95.591","MEAN_MOTION":"15.06414007","MEAN_ANOMALY":"273.9670","FILE":"3210161","REF_FRAME":"TEME","ARG_OF_PERICENTER":"86.1474","DECAY_DATE":null,"MEAN_MOTION_DDOT":"0.0000000000000","APOAPSIS":"548.112","GP_ID":"189338105","MEAN_ELEMENT_THEORY":"SGP4","PERIAPSIS":"546.229","RCS_SIZE":"LARGE","OBJECT_NAME":"STARLINK-2466","TIME_SYSTEM":"UTC"},{"TLE_LINE1":"1 48126U 21027AL  21313.77011333 -.00001289  00000-0 -67697-4 0  9999","LAUNCH_DATE":"2021-04-07","CENTER_NAME":"EARTH","EPOCH":"2021-11-09T18:28:57.791712","EPHEMERIS_TYPE":"0","BSTAR":"-0.00006769700000","ELEMENT_SET_NO":"999","COUNTRY_CODE":"US","OBJECT_ID":"2021-027AL","CLASSIFICATION_TYPE":"U","RA_OF_ASC_NODE":"48.6411","MEAN_MOTION_DOT":"-0.00001289","REV_AT_EPOCH":"3442","INCLINATION":"53.0537","SITE":"AFETR","SEMIMAJOR_AXIS":"6925.406","NORAD_CAT_ID":"48126","ECCENTRICITY":"0.00013440","TLE_LINE2":"2 48126  53.0537  48.6411 0001344  81.0533 279.0609 15.06381369 34420","OBJECT_TYPE":"PAYLOAD","PERIOD":"95.593","MEAN_MOTION":"15.06381369","MEAN_ANOMALY":"279.0609","FILE":"3210180","REF_FRAME":"TEME","ARG_OF_PERICENTER":"81.0533","DECAY_DATE":null,"APOAPSIS":"548.201","MEAN_MOTION_DDOT":"0.0000000000000","GP_ID":"189361604","MEAN_ELEMENT_THEORY":"SGP4","PERIAPSIS":"546.340","RCS_SIZE":"LARGE","OBJECT_NAME":"STARLINK-2467","TIME_SYSTEM":"UTC"},{"MEAN_ELEMENT_THEORY":"SGP4","PERIAPSIS":"546.194","RCS_SIZE":"LARGE","TIME_SYSTEM":"UTC","OBJECT_NAME":"STARLINK-2468","GP_ID":"189337603","DECAY_DATE":null,"ARG_OF_PERICENTER":"74.9224","MEAN_MOTION_DDOT":"0.0000000000000","APOAPSIS":"548.236","OBJECT_TYPE":"PAYLOAD","PERIOD":"95.592","TLE_LINE2":"2 48127  53.0560  70.1679 0001474  74.9224 285.1928 15.06399561 34082","FILE":"3210161","REF_FRAME":"TEME","MEAN_MOTION":"15.06399561","MEAN_ANOMALY":"285.1928","NORAD_CAT_ID":"48127","ECCENTRICITY":"0.00014740","SEMIMAJOR_AXIS":"6925.350","INCLINATION":"53.0560","REV_AT_EPOCH":"3408","MEAN_MOTION_DOT":"0.00004746","SITE":"AFETR","ELEMENT_SET_NO":"999","CLASSIFICATION_TYPE":"U","RA_OF_ASC_NODE":"70.1679","COUNTRY_CODE":"US","OBJECT_ID":"2021-027AM","CENTER_NAME":"EARTH","EPOCH":"2021-11-09T10:18:00.859104","LAUNCH_DATE":"2021-04-07","TLE_LINE1":"1 48127U 21027AM  21313.42917661  .00004746  00000-0  33727-3 0  9996","EPHEMERIS_TYPE":"0","BSTAR":"0.00033727000000"},{"FILE":"3210180","REF_FRAME":"TEME","MEAN_MOTION":"15.06401839","MEAN_ANOMALY":"312.7044","OBJECT_TYPE":"PAYLOAD","PERIOD":"95.592","TLE_LINE2":"2 48128  53.0536 358.7942 0002042  47.4117 312.7044 15.06401839 35104","APOAPSIS":"548.622","MEAN_MOTION_DDOT":"0.0000000000000","DECAY_DATE":null,"ARG_OF_PERICENTER":"47.4117","GP_ID":"189360603","TIME_SYSTEM":"UTC","OBJECT_NAME":"STARLINK-2469","MEAN_ELEMENT_THEORY":"SGP4","PERIAPSIS":"545.794","RCS_SIZE":"LARGE","BSTAR":"0.00013545000000","EPHEMERIS_TYPE":"0","CENTER_NAME":"EARTH","EPOCH":"2021-11-09T17:35:52.202112","LAUNCH_DATE":"2021-04-07","TLE_LINE1":"1 48128U 21027AN  21313.73324308  .00001736  00000-0  13545-3 0  9993","CLASSIFICATION_TYPE":"U","RA_OF_ASC_NODE":"358.7942","COUNTRY_CODE":"US","OBJECT_ID":"2021-027AN","ELEMENT_SET_NO":"999","SITE":"AFETR","INCLINATION":"53.0536","REV_AT_EPOCH":"3510","MEAN_MOTION_DOT":"0.00001736","NORAD_CAT_ID":"48128","ECCENTRICITY":"0.00020420","SEMIMAJOR_AXIS":"6925.343"}];
